CCSDS_OMM_VERS = 2.0
CREATION_DATE  = 
ORIGINATOR     = 

OBJECT_NAME    = STARLINK-37091
OBJECT_ID      = 2026-050AA
CENTER_NAME    = EARTH
REF_FRAME      = TEME
TIME_SYSTEM    = UTC
MEAN_ELEMENT_THEORY = SGP/SGP4

EPOCH          = 2026-04-01T16:22:10.092000
MEAN_MOTION    = 15.80993175
ECCENTRICITY   = .0000762
INCLINATION    = 53.1587
RA_OF_ASC_NODE = 166.3930
ARG_OF_PERICENTER = 64.7696
MEAN_ANOMALY   = 295.3405

EPHEMERIS_TYPE = 0
CLASSIFICATION_TYPE = U
NORAD_CAT_ID   = 68191
ELEMENT_SET_NO = 999
REV_AT_EPOCH   = 411
BSTAR          = .14804E-2
MEAN_MOTION_DOT = .30368E-2
MEAN_MOTION_DDOT = 0

CCSDS_OMM_VERS = 2.0
CREATION_DATE  = 
ORIGINATOR     = 

OBJECT_NAME    = STARLINK-37098
OBJECT_ID      = 2026-050AB
CENTER_NAME    = EARTH
REF_FRAME      = TEME
TIME_SYSTEM    = UTC
MEAN_ELEMENT_THEORY = SGP/SGP4

EPOCH          = 2026-04-01T16:21:05.445792
MEAN_MOTION    = 15.80976286
ECCENTRICITY   = .0001066
INCLINATION    = 53.1585
RA_OF_ASC_NODE = 166.3883
ARG_OF_PERICENTER = 88.3429
MEAN_ANOMALY   = 271.7716

EPHEMERIS_TYPE = 0
CLASSIFICATION_TYPE = U
NORAD_CAT_ID   = 68192
ELEMENT_SET_NO = 999
REV_AT_EPOCH   = 411
BSTAR          = .1319E-2
MEAN_MOTION_DOT = .26918E-2
MEAN_MOTION_DDOT = 0

CCSDS_OMM_VERS = 2.0
CREATION_DATE  = 
ORIGINATOR     = 

OBJECT_NAME    = STARLINK-37090
OBJECT_ID      = 2026-050AC
CENTER_NAME    = EARTH
REF_FRAME      = TEME
TIME_SYSTEM    = UTC
MEAN_ELEMENT_THEORY = SGP/SGP4

EPOCH          = 2026-04-01T16:18:55.672128
MEAN_MOTION    = 15.81010303
ECCENTRICITY   = .00009
INCLINATION    = 53.1584
RA_OF_ASC_NODE = 166.3773
ARG_OF_PERICENTER = 80.4569
MEAN_ANOMALY   = 279.6555

EPHEMERIS_TYPE = 0
CLASSIFICATION_TYPE = U
NORAD_CAT_ID   = 68193
ELEMENT_SET_NO = 999
REV_AT_EPOCH   = 411
BSTAR          = .16357E-2
MEAN_MOTION_DOT = .337199E-2
MEAN_MOTION_DDOT = 0

CCSDS_OMM_VERS = 2.0
CREATION_DATE  = 
ORIGINATOR     = 

OBJECT_NAME    = STARLINK-37093
OBJECT_ID      = 2026-050AD
CENTER_NAME    = EARTH
REF_FRAME      = TEME
TIME_SYSTEM    = UTC
MEAN_ELEMENT_THEORY = SGP/SGP4

EPOCH          = 2026-04-01T16:24:19.965888
MEAN_MOTION    = 15.80972196
ECCENTRICITY   = .0001602
INCLINATION    = 53.1589
RA_OF_ASC_NODE = 166.4028
ARG_OF_PERICENTER = 70.0880
MEAN_ANOMALY   = 290.0315

EPHEMERIS_TYPE = 0
CLASSIFICATION_TYPE = U
NORAD_CAT_ID   = 68194
ELEMENT_SET_NO = 999
REV_AT_EPOCH   = 411
BSTAR          = .12566E-2
MEAN_MOTION_DOT = .255979E-2
MEAN_MOTION_DDOT = 0

CCSDS_OMM_VERS = 2.0
CREATION_DATE  = 
ORIGINATOR     = 

OBJECT_NAME    = STARLINK-37058
OBJECT_ID      = 2026-050AE
CENTER_NAME    = EARTH
REF_FRAME      = TEME
TIME_SYSTEM    = UTC
MEAN_ELEMENT_THEORY = SGP/SGP4

EPOCH          = 2026-04-01T16:20:00.620736
MEAN_MOTION    = 15.80945422
ECCENTRICITY   = .0000966
INCLINATION    = 53.1588
RA_OF_ASC_NODE = 166.3827
ARG_OF_PERICENTER = 90.9071
MEAN_ANOMALY   = 269.2062

EPHEMERIS_TYPE = 0
CLASSIFICATION_TYPE = U
NORAD_CAT_ID   = 68195
ELEMENT_SET_NO = 999
REV_AT_EPOCH   = 255
BSTAR          = .91953E-3
MEAN_MOTION_DOT = .185351E-2
MEAN_MOTION_DDOT = 0

CCSDS_OMM_VERS = 2.0
CREATION_DATE  = 
ORIGINATOR     = 

OBJECT_NAME    = YAOGAN-50 02
OBJECT_ID      = 2026-051A
CENTER_NAME    = EARTH
REF_FRAME      = TEME
TIME_SYSTEM    = UTC
MEAN_ELEMENT_THEORY = SGP/SGP4

EPOCH          = 2026-04-01T23:20:49.048224
MEAN_MOTION    = 13.83260218
ECCENTRICITY   = .0000718
INCLINATION    = 141.9868
RA_OF_ASC_NODE = 319.5315
ARG_OF_PERICENTER = 277.0683
MEAN_ANOMALY   = 82.9955

EPHEMERIS_TYPE = 0
CLASSIFICATION_TYPE = U
NORAD_CAT_ID   = 68196
ELEMENT_SET_NO = 999
REV_AT_EPOCH   = 243
BSTAR          = .71268E-4
MEAN_MOTION_DOT = .265E-5
MEAN_MOTION_DDOT = 0

CCSDS_OMM_VERS = 2.0
CREATION_DATE  = 
ORIGINATOR     = 

OBJECT_NAME    = CZ-6A R/B
OBJECT_ID      = 2026-051B
CENTER_NAME    = EARTH
REF_FRAME      = TEME
TIME_SYSTEM    = UTC
MEAN_ELEMENT_THEORY = SGP/SGP4

EPOCH          = 2026-04-01T21:22:51.271680
MEAN_MOTION    = 14.56378203
ECCENTRICITY   = .0187114
INCLINATION    = 142.0311
RA_OF_ASC_NODE = 328.6337
ARG_OF_PERICENTER = 218.1356
MEAN_ANOMALY   = 140.5997

EPHEMERIS_TYPE = 0
CLASSIFICATION_TYPE = U
NORAD_CAT_ID   = 68197
ELEMENT_SET_NO = 999
REV_AT_EPOCH   = 254
BSTAR          = .14892E-3
MEAN_MOTION_DOT = .1146E-4
MEAN_MOTION_DDOT = 0

CCSDS_OMM_VERS = 2.0
CREATION_DATE  = 
ORIGINATOR     = 

OBJECT_NAME    = 2026-052A
OBJECT_ID      = 2026-052A
CENTER_NAME    = EARTH
REF_FRAME      = TEME
TIME_SYSTEM    = UTC
MEAN_ELEMENT_THEORY = SGP/SGP4

EPOCH          = 2026-04-01T20:26:52.831968
MEAN_MOTION    = 15.09993289
ECCENTRICITY   = .0013387
INCLINATION    = 97.5366
RA_OF_ASC_NODE = 167.8338
ARG_OF_PERICENTER = 203.5305
MEAN_ANOMALY   = 156.5313

EPHEMERIS_TYPE = 0
CLASSIFICATION_TYPE = U
NORAD_CAT_ID   = 68198
ELEMENT_SET_NO = 999
REV_AT_EPOCH   = 252
BSTAR          = .44518E-3
MEAN_MOTION_DOT = .7185E-4
MEAN_MOTION_DDOT = 0

CCSDS_OMM_VERS = 2.0
CREATION_DATE  = 
ORIGINATOR     = 

OBJECT_NAME    = YUXING-3 06
OBJECT_ID      = 2026-052B
CENTER_NAME    = EARTH
REF_FRAME      = TEME
TIME_SYSTEM    = UTC
MEAN_ELEMENT_THEORY = SGP/SGP4

EPOCH          = 2026-04-01T17:13:33.586176
MEAN_MOTION    = 15.10142718
ECCENTRICITY   = .0012372
INCLINATION    = 97.5367
RA_OF_ASC_NODE = 167.7051
ARG_OF_PERICENTER = 205.3060
MEAN_ANOMALY   = 154.7565

EPHEMERIS_TYPE = 0
CLASSIFICATION_TYPE = U
NORAD_CAT_ID   = 68199
ELEMENT_SET_NO = 999
REV_AT_EPOCH   = 250
BSTAR          = .30373E-3
MEAN_MOTION_DOT = .4899E-4
MEAN_MOTION_DDOT = 0

CCSDS_OMM_VERS = 2.0
CREATION_DATE  = 
ORIGINATOR     = 

OBJECT_NAME    = 2026-052C
OBJECT_ID      = 2026-052C
CENTER_NAME    = EARTH
REF_FRAME      = TEME
TIME_SYSTEM    = UTC
MEAN_ELEMENT_THEORY = SGP/SGP4

EPOCH          = 2026-04-01T20:22:20.269344
MEAN_MOTION    = 15.10262192
ECCENTRICITY   = .0012126
INCLINATION    = 97.5362
RA_OF_ASC_NODE = 167.8387
ARG_OF_PERICENTER = 207.3620
MEAN_ANOMALY   = 152.6972

EPHEMERIS_TYPE = 0
CLASSIFICATION_TYPE = U
NORAD_CAT_ID   = 68200
ELEMENT_SET_NO = 999
REV_AT_EPOCH   = 251
BSTAR          = .2832E-3
MEAN_MOTION_DOT = .4578E-4
MEAN_MOTION_DDOT = 0

CCSDS_OMM_VERS = 2.0
CREATION_DATE  = 
ORIGINATOR     = 

OBJECT_NAME    = 2026-052D
OBJECT_ID      = 2026-052D
CENTER_NAME    = EARTH
REF_FRAME      = TEME
TIME_SYSTEM    = UTC
MEAN_ELEMENT_THEORY = SGP/SGP4

EPOCH          = 2026-04-01T20:19:27.808032
MEAN_MOTION    = 15.10489992
ECCENTRICITY   = .0011354
INCLINATION    = 97.5360
RA_OF_ASC_NODE = 167.8383
ARG_OF_PERICENTER = 203.9057
MEAN_ANOMALY   = 156.1646

EPHEMERIS_TYPE = 0
CLASSIFICATION_TYPE = U
NORAD_CAT_ID   = 68201
ELEMENT_SET_NO = 999
REV_AT_EPOCH   = 252
BSTAR          = .38471E-3
MEAN_MOTION_DOT = .6282E-4
MEAN_MOTION_DDOT = 0

CCSDS_OMM_VERS = 2.0
CREATION_DATE  = 
ORIGINATOR     = 

OBJECT_NAME    = 2026-052E
OBJECT_ID      = 2026-052E
CENTER_NAME    = EARTH
REF_FRAME      = TEME
TIME_SYSTEM    = UTC
MEAN_ELEMENT_THEORY = SGP/SGP4

EPOCH          = 2026-04-01T20:19:26.126688
MEAN_MOTION    = 15.10490385
ECCENTRICITY   = .001114
INCLINATION    = 97.5362
RA_OF_ASC_NODE = 167.8406
ARG_OF_PERICENTER = 208.0775
MEAN_ANOMALY   = 151.9855

EPHEMERIS_TYPE = 0
CLASSIFICATION_TYPE = U
NORAD_CAT_ID   = 68202
ELEMENT_SET_NO = 999
REV_AT_EPOCH   = 252
BSTAR          = .4198E-3
MEAN_MOTION_DOT = .6861E-4
MEAN_MOTION_DDOT = 0

